CONNECTA T1.1           
1 52739U 22057H   23313.28947466  .00010847  00000+0  52173-3 0  9990
2 52739  97.5616  68.5610 0008165 205.7434 154.3395 15.18945991 80610
OP15 FLT1 (TYVAK-0820)  
1 52741U 22057K   23313.85102119  .00034763  00000+0  12072-2 0  9990
2 52741  97.5590  72.1219 0007272 202.6126 157.4795 15.29660824 80891
CENTAURI 5 (TYVAK-0212) 
1 52742U 22057L   23313.91323904  .00029528  00000+0  85002-3 0  9992
2 52742  97.5508  73.6259 0004949 177.9991 182.1272 15.35711837 81033
UMBRA-03                
1 52753U 22057X   23313.85817795  .00074833  00000+0  26460-2 0  9994
2 52753  97.5376  68.8530 0001829 333.2890  26.8255 15.28879730 80735
VIGORIDE-3              
1 52760U 22057AE  23313.88037260  .00004417  00000+0  23203-3 0  9990
2 52760  97.5598  68.4735 0010693 186.9257 173.1830 15.16182242 80671
ION SCV-006             
1 52761U 22057AF  23313.90131268  .00006997  00000+0  35173-3 0  9991
2 52761  97.5221  68.9467 0010752 185.0856 175.0270 15.17519793 80702
SHERPA-AC1              
1 52763U 22057AH  23313.86564867  .00007654  00000+0  38394-3 0  9992
2 52763  97.5613  69.0617 0011165 184.3612 175.7525 15.17561089 80704
PLATFORM-1              
1 52770U 22057AQ  23313.85004667  .00011986  00000+0  52019-3 0  9999
2 52770  97.5562  70.7943 0011435 168.4390 191.7111 15.22427392 80839
OMNI-L2                 
1 52771U 22057AR  23313.88377248  .00006715  00000+0  76324-3 0  9990
2 52771  97.5236  58.0612 0007886 187.5836 172.5262 14.86541168 80046
CPOD FLT1 (TYVAK-0032)  
1 52772U 22057AS  23313.84894823  .00049228  00000+0  13745-2 0  9993
2 52772  97.5497  73.9083 0008805 167.2027 192.9441 15.36525641 81043
VEERY-FS1               
1 52777U 22057AX  23313.57382516  .00084752  00000+0  19708-2 0  9995
2 52777  97.5521  74.7596 0007875 177.1959 182.9333 15.41978251 81060
STEP CUBE LAB-II        
1 52897U 22065D   23313.88865619  .00001834  00000+0  39533-3 0  9990
2 52897  98.0904  94.8113 0010099 116.1575 244.0665 14.59533991 72683
RANDEV                  
1 52898U 22065E   23313.92698347  .00002037  00000+0  43692-3 0  9995
2 52898  98.0900  94.9085 0009337 117.7511 242.4637 14.59667849 72411
SNUGLITE-II             
1 52899U 22065F   23313.90077047  .00002207  00000+0  47090-3 0  9997
2 52899  98.0892  94.9184 0008844 118.1463 242.0632 14.59832013 72110
MIMAN                   
1 52900U 22065G   23313.89960463  .00001518  00000+0  33199-3 0  9990
2 52900  98.0922  94.6798 0008868 112.4658 247.7481 14.59106578 71724
SLINGSHOT 1             
1 52947U 22074D   23313.37793726  .00053996  00000+0  12299-2 0  9994
2 52947  44.9903 283.0854 0004233 110.6253 249.5089 15.42211272 75846
CTIM                    
1 52950U 22074G   23313.20462435  .00531219  00000+0  27136-2 0  9995
2 52950  44.9979 255.2020 0014779 150.0422 210.1329 15.79034699 76164
STARLINK-4362           
1 53043U 22077A   23313.75864725  .00000166  00000+0  17509-4 0  9997
2 53043  97.6525 132.7492 0002002  92.7340 267.4114 15.01270750 73258
LARES-2                 
1 53105U 22080A   23311.13351698 -.00000003  00000+0  00000+0 0  9994
2 53105  70.1423 272.1915 0005302 186.7276 173.3177  6.38965195 30775
GREENCUBE               
1 53106U 22080B   23313.26690604 -.00000003  00000+0  00000+0 0  9994
2 53106  70.1424 269.2877 0008301 157.4945 202.6080  6.42557162 31070
MTCUBE 2 (ROBUSTA 1F)   
1 53109U 22080E   23313.55811278 -.00000003  00000+0  00000+0 0  9991
2 53109  70.1263 268.8518 0008212 138.1395 221.9893  6.42584076 30986
STARLINK-4410           
1 53204U 22084R   23313.87860864  .00010458  00000+0  81739-3 0  9997
2 53204  97.6560  12.8567 0002163 269.6132  90.4844 15.01268490 72328
COSMOS 2558             
1 53323U 22089A   23313.90495688  .00025887  00000+0  77361-3 0  9994
2 53323  97.2488  50.5086 0004752 147.9087 212.2446 15.34557066 71465
2022-090A               
1 53346U 22090A   23313.90889371  .00007995  00000+0  36224-3 0  9990
2 53346  97.4241  26.4603 0005117 103.1705 257.0102 15.21112483 70352
2022-095A               
1 53367U 22095A   23313.93120998  .00078696  00000+0  12895-2 0  9997
2 53367  97.3626  32.6556 0044738 242.0808 117.5911 15.51046565 70163
2022-095B               
1 53368U 22095B   23313.88671625  .00068639  00000+0  11672-2 0  9998
2 53368  97.3615  32.6586 0046026 241.2870 118.3752 15.49984918 70158
2022-096B               
1 53371U 22096B   23313.92165490  .00029707  00000+0  76391-3 0  9999
2 53371  97.4029 219.9693 0003273  68.1432 292.0161 15.39218287 70004
2022-096C               
1 53372U 22096C   23313.92879533  .00028535  00000+0  74778-3 0  9995
2 53372  97.4024 219.7875 0003140  67.8270 292.3308 15.38645064 69975
CYCLOPS (RS29S)         
1 53373U 22096D   23313.91842158  .00095867  00000+0  14236-2 0  9992
2 53373  97.3992 223.0938 0004925  84.8417 275.3399 15.54853742 70190
MONITOR-1 (RS32S)       
1 53374U 22096E   23313.89215763  .00081039  00000+0  13094-2 0  9993
2 53374  97.3941 222.5671 0004497  75.3081 284.8670 15.52575067 70162
KUZBASS-300 (RS34S)     
1 53375U 22096F   23313.95811520  .00055234  00000+0  11013-2 0  9991
2 53375  97.4002 221.6818 0003798  70.3969 289.7690 15.46686778 70103
UTMN (RS23S)            
1 53376U 22096G   23313.90582322  .00060411  00000+0  11463-2 0  9994
2 53376  97.3993 221.8862 0004102  74.7630 285.4073 15.48099418 70116
MIET-AIS (RS28S)        
1 53377U 22096H   23313.91811087  .00048767  00000+0  10209-2 0  9996
2 53377  97.4015 221.4577 0003547  71.3067 288.8566 15.45291069 70084
KAI-1 (RS26S)           
1 53378U 22096J   23313.95146811  .00038036  00000+0  87936-3 0  9997
2 53378  97.4038 220.8520 0003239  67.5683 292.5907 15.42396673 70041
ISOI (RS19S)            
1 53381U 22096M   23313.90651526  .00053586  00000+0  10786-2 0  9995
2 53381  97.4013 221.8965 0001353 104.3749 255.7651 15.46424184 70118
RESHUCUBE (RS8S)        
1 53382U 22096N   23313.92921411  .00036791  00000+0  81433-3 0  9998
2 53382  97.4022 221.3095 0000786  98.0930 262.0407 15.43709849 70074
CUBESX-HSE-2 (RS21S)    
1 53383U 22096P   23313.92715649  .00056606  00000+0  10753-2 0  9996
2 53383  97.3996 222.1791 0001615 103.2841 256.8590 15.48090709 70132
SIREN (RS30S)           
1 53384U 22096Q   23313.90890267  .00048066  00000+0  10265-2 0  9994
2 53384  97.4019 221.4849 0001045 115.5626 244.5730 15.44711305 70082
GEOSCAN-EDELVEIS (RS20S)
1 53385U 22096R   23313.90130337  .00103199  00000+0  13749-2 0  9999
2 53385  97.3975 223.9863 0003583 118.7235 241.4381 15.57778277 70281
VIZARD (RS33S)          
1 53386U 22096S   23313.26925942  .00313910  00000+0  21143-2 0  9994
2 53386  97.3933 225.6057 0006051 110.7419 249.4494 15.74216988 70322
DONGPO 04               
1 53451U 22098H   23313.90937089  .00014277  00000+0  71989-3 0  9993
2 53451  97.5367  49.3778 0006275 144.5834 215.5817 15.17238535 69019
DONGPO 02               
1 53452U 22098J   23313.89993818  .00014807  00000+0  74669-3 0  9991
2 53452  97.5261  48.7959 0006182 148.3699 211.7907 15.17225918 69014
DONGPO 01               
1 53453U 22098K   23313.89632526  .00014787  00000+0  74650-3 0  9995
2 53453  97.5313  49.0974 0006317 148.7448 211.4162 15.17185888 69011
STARLINK-4400           
1 53468U 22099D   23313.90668516 -.00003521  00000+0 -26957-3 0  9995
2 53468  97.6553  72.8828 0004079 254.2462 105.8312 15.01268726 68331
STARLINK-4621           
1 53676U 22105AE  23313.64971992  .00012834  00000+0  10012-2 0  9999
2 53676  97.6546 192.6362 0001875  90.5130 269.6309 15.01288222 65551
SHERPA-LTC2             
1 53754U 22107BG  23313.96543330  .00006439  00000+0  38450-3 0  9995
2 53754  53.2389 235.7105 0459235 120.1817 244.5468 14.52816929 63556
CENTISPACE-1 S3         
1 53757U 22108A   23313.86398819  .00001690  00000+0  39963-3 0  9992
2 53757  53.5346  17.7140 0009454 346.6089  13.4633 14.58619867 62703
CENTISPACE-1 S4         
1 53758U 22108B   23313.92371081  .00001659  00000+0  39202-3 0  9993
2 53758  53.5316  17.9266 0008634 331.5274  28.5227 14.58723921 62703
BLUEWALKER 3            
1 53807U 22111AL  23313.89963313  .00008051  00000+0  35412-3 0  9995
2 53807  53.2245 125.9473 0012684 136.8332 223.3663 15.22709698 64637
YUNHAI 1-03             
1 53877U 22115A   23313.92047685  .00000641  00000+0  24955-3 0  9992
2 53877  98.5138 310.0877 0001283 107.4503 252.6821 14.33071286 59427
SELFIESAT               
1 53951U 22057BC  23313.90686005  .00035667  00000+0  12421-2 0  9993
2 53951  97.5543  71.7021 0007604 192.8442 167.2606 15.29560035 80892
CENTISPACE-1 S5         
1 54020U 22126A   23313.92322216  .00002108  00000+0  48770-3 0  9992
2 54020  55.0002  44.2174 0015938  94.4468 265.8345 14.58642082 58138
CENTISPACE-1 S6         
1 54021U 22126B   23313.92126898  .00001639  00000+0  38569-3 0  9994
2 54021  55.0003  44.2096 0017704  98.9803 261.3194 14.58911783 58127
OTB-3-GAZELLE           
1 54023U 22127A   23313.95313824  .00000339  00000+0  11654-3 0  9999
2 54023  98.3328 308.3175 0013506 171.0590 189.0843 14.41936901 57388
ASO-S                   
1 54029U 22129A   23313.89357000  .00000442  00000+0  12229-3 0  9998
2 54029  98.2696 317.6434 0015720 126.5863 233.6781 14.51137136 57550
HJ-2E                   
1 54035U 22132A   23313.97384739  .00017090  00000+0  68423-3 0  9991
2 54035  97.3902 318.7896 0009524  78.3433 281.8873 15.25085070 59834
COSMOS 2561             
1 54109U 22137A   23313.93133357  .00014531  00000+0  37705-3 0  9998
2 54109  97.0438  33.8547 0012369 216.0406 144.0008 15.39005799 59685
GONETS-M 23             
1 54150U 22139A   23313.91104126  .00000033  00000+0  16658-3 0  9992
2 54150  82.5087 218.7730 0021308 132.6656 227.6224 12.42892476 47593
GONETS-M 24             
1 54151U 22139B   23313.88214262  .00000027  00000+0  12084-3 0  9994
2 54151  82.5006 218.4908 0016064 141.3669 218.8563 12.42891585 47591
